$$SOE
2459580.500000000, A.D. 2022-Jan-01 00:00:00.0000, -3.102872596497428E+08, 2.324242159817003E+08, 5.010740446304174E+07,
2459587.500000000, A.D. 2022-Jan-08 00:00:00.0000, -3.152957073674465E+08, 2.235168602056544E+08, 5.009359556118642E+07,
2459594.500000000, A.D. 2022-Jan-15 00:00:00.0000, -3.200456131914247E+08, 2.144262039746227E+08, 5.003870325414944E+07,
2459601.500000000, A.D. 2022-Jan-22 00:00:00.0000, -3.245305454506468E+08, 2.051580062309344E+08, 4.994237633696660E+07,
2459608.500000000, A.D. 2022-Jan-29 00:00:00.0000, -3.287440717912265E+08, 1.957182280190072E+08, 4.980427667670245E+07,
2459615.500000000, A.D. 2022-Feb-05 00:00:00.0000, -3.326797633820356E+08, 1.861130413889095E+08, 4.962408021055441E+07,
2459622.500000000, A.D. 2022-Feb-12 00:00:00.0000, -3.363311974859032E+08, 1.763488376710186E+08, 4.940147774870784E+07,
2459629.500000000, A.D. 2022-Feb-19 00:00:00.0000, -3.396919597609295E+08, 1.664322374877038E+08, 4.913617590044864E+07,
2459636.500000000, A.D. 2022-Feb-26 00:00:00.0000, -3.427556476560409E+08, 1.563701017764523E+08, 4.882789818973323E+07,
2459643.500000000, A.D. 2022-Mar-05 00:00:00.0000, -3.455158748004658E+08, 1.461695432066299E+08, 4.847638630135717E+07,
2459650.500000000, A.D. 2022-Mar-12 00:00:00.0000, -3.479662762285983E+08, 1.358379379219692E+08, 4.808140143877225E+07,
2459657.500000000, A.D. 2022-Mar-19 00:00:00.0000, -3.501005144370372E+08, 1.253829376324214E+08, 4.764272579653790E+07,
2459664.500000000, A.D. 2022-Mar-26 00:00:00.0000, -3.519122863236519E+08, 1.148124820415096E+08, 4.716016415246319E+07,
2459671.500000000, A.D. 2022-Apr-02 00:00:00.0000, -3.533953310179168E+08, 1.041348115408065E+08, 4.663354557663523E+07,
2459678.500000000, A.D. 2022-Apr-09 00:00:00.0000, -3.545434384125410E+08, 9.335848015849471E+07, 4.606272524104730E+07,
2459685.500000000, A.D. 2022-Apr-16 00:00:00.0000, -3.553504581261929E+08, 8.249236939178658E+07, 4.544758635885032E+07,
2459692.500000000, A.D. 2022-Apr-23 00:00:00.0000, -3.558103102588795E+08, 7.154570397495650E+07, 4.478804246651770E+07,
2459699.500000000, A.D. 2022-Apr-30 00:00:00.0000, -3.559169999117474E+08, 6.052806729669508E+07, 4.408404004564199E+07,
2459706.500000000, A.D. 2022-May-07 00:00:00.0000, -3.556646325168005E+08, 4.944941444567528E+07, 4.333556105118687E+07,
2459713.500000000, A.D. 2022-May-14 00:00:00.0000, -3.550474286938634E+08, 3.832008586385486E+07, 4.254262547511522E+07,
2459720.500000000, A.D. 2022-May-21 00:00:00.0000, -3.540597407776536E+08, 2.715082228953301E+07, 4.170529420105138E+07,
2459727.500000000, A.D. 2022-May-28 00:00:00.0000, -3.526960716180902E+08, 1.595277994057313E+07, 4.082367212351858E+07,
2459734.500000000, A.D. 2022-Jun-04 00:00:00.0000, -3.509510955067785E+08, 4.737545521958768E+06, 3.989791148876163E+07,
2459741.500000000, A.D. 2022-Jun-11 00:00:00.0000, -3.488196812161267E+08, -6.482849060417663E+06, 3.892821545107756E+07,
2459748.500000000, A.D. 2022-Jun-18 00:00:00.0000, -3.462969172453523E+08, -1.769591240760089E+07, 3.791484184804554E+07,
2459755.500000000, A.D. 2022-Jun-25 00:00:00.0000, -3.433781393785567E+08, -2.888867995390678E+07, 3.685810719384445E+07,
2459762.500000000, A.D. 2022-Jul-02 00:00:00.0000, -3.400589605553182E+08, -4.004770116553799E+07, 3.575839087602419E+07,
2459769.500000000, A.D. 2022-Jul-09 00:00:00.0000, -3.363353027951883E+08, -5.115902764918402E+07, 3.461613953540868E+07,
2459776.500000000, A.D. 2022-Jul-16 00:00:00.0000, -3.322034313565736E+08, -6.220820133174566E+07, 3.343187172108631E+07,
2459783.500000000, A.D. 2022-Jul-23 00:00:00.0000, -3.276599934446677E+08, -7.318024291038650E+07, 3.220618302374120E+07,
2459790.500000000, A.D. 2022-Jul-30 00:00:00.0000, -3.227020614917390E+08, -8.405964423948768E+07, 3.093975139754966E+07,
2459797.500000000, A.D. 2022-Aug-06 00:00:00.0000, -3.173271775039476E+08, -9.483036435262580E+07, 2.963334238184720E+07,
2459804.500000000, A.D. 2022-Aug-13 00:00:00.0000, -3.115333993620675E+08, -1.054758267453747E+08, 2.828781450599553E+07,
2459811.500000000, A.D. 2022-Aug-20 00:00:00.0000, -3.053193506750730E+08, -1.159789188443482E+08, 2.690412495628778E+07,
2459818.500000000, A.D. 2022-Aug-27 00:00:00.0000, -2.986842741153003E+08, -1.263219948560389E+08, 2.548333540869566E+07,
2459825.500000000, A.D. 2022-Sep-03 00:00:00.0000, -2.916280879449574E+08, -1.364868826126164E+08, 2.402661795824726E+07,
2459832.500000000, A.D. 2022-Sep-10 00:00:00.0000, -2.841514455478637E+08, -1.464548949334600E+08, 2.253526109287355E+07,
2459839.500000000, A.D. 2022-Sep-17 00:00:00.0000, -2.762557977752351E+08, -1.562068460827162E+08, 2.101067565316916E+07,
2459846.500000000, A.D. 2022-Sep-24 00:00:00.0000, -2.679434578083878E+08, -1.657230739855666E+08, 1.945440070196623E+07,
2459853.500000000, A.D. 2022-Oct-01 00:00:00.0000, -2.592176679767896E+08, -1.749834688644518E+08, 1.786810920210207E+07,
2459860.500000000, A.D. 2022-Oct-08 00:00:00.0000, -2.500826677063556E+08, -1.839675084303135E+08, 1.625361341780602E+07,
2459867.500000000, A.D. 2022-Oct-15 00:00:00.0000, -2.405437630036052E+08, -1.926542990930243E+08, 1.461287012047680E+07,
2459874.500000000, A.D. 2022-Oct-22 00:00:00.0000, -2.306073990117423E+08, -2.010226255306746E+08, 1.294798554530860E+07,
2459881.500000000, A.D. 2022-Oct-29 00:00:00.0000, -2.202812323690114E+08, -2.090510118416093E+08, 1.126121952856094E+07,
2459888.500000000, A.D. 2022-Nov-05 00:00:00.0000, -2.095742003593618E+08, -2.167177921151577E+08, 9.554988715190813E+06,
2459895.500000000, A.D. 2022-Nov-12 00:00:00.0000, -1.984965877524926E+08, -2.240011896508851E+08, 7.831868966764167E+06,
2459902.500000000, A.D. 2022-Nov-19 00:00:00.0000, -1.870600908225672E+08, -2.308794061816706E+08, 6.094596793225110E+06,
2459909.500000000, A.D. 2022-Nov-26 00:00:00.0000, -1.752778769047490E+08, -2.373307217863601E+08, 4.346069579630777E+06,
2459916.500000000, A.D. 2022-Dec-03 00:00:00.0000, -1.631646378206325E+08, -2.433336056452567E+08, 2.589344414780796E+06,
2459923.500000000, A.D. 2022-Dec-10 00:00:00.0000, -1.507366355164720E+08, -2.488668375623621E+08, 8.276353415399343E+05,
2459930.500000000, A.D. 2022-Dec-17 00:00:00.0000, -1.380117381782850E+08, -2.539096399737661E+08, -9.356911495463848E+05,
2459937.500000000, A.D. 2022-Dec-24 00:00:00.0000, -1.250094449211848E+08, -2.584418199219984E+08, -2.697122564119980E+06,
2459944.500000000, A.D. 2022-Dec-31 00:00:00.0000, -1.117508968600540E+08, -2.624439199980073E+08, -4.453008959200844E+06,
2459951.500000000, A.D. 2023-Jan-07 00:00:00.0000, -9.825887261574218E+07, -2.658973760684799E+08, -6.199573668885738E+06,
2459958.500000000, A.D. 2023-Jan-14 00:00:00.0000, -8.455776847344805E+07, -2.687846797212475E+08, -7.932926074880570E+06,
2459965.500000000, A.D. 2023-Jan-21 00:00:00.0000, -7.067356222682150E+07, -2.710895466722888E+08, -9.649076678223446E+06,
2459972.500000000, A.D. 2023-Jan-28 00:00:00.0000, -5.663375564442256E+07, -2.727970890516967E+08, -1.134395483367668E+07,
2459979.500000000, A.D. 2023-Feb-04 00:00:00.0000, -4.246729466714502E+07, -2.738939859299345E+08, -1.301342883432770E+07,
2459986.500000000, A.D. 2023-Feb-11 00:00:00.0000, -2.820446840212370E+07, -2.743686493661912E+08, -1.465332809040420E+07,
2459993.500000000, A.D. 2023-Feb-18 00:00:00.0000, -1.387678669077369E+07, -2.742113836472282E+08, -1.625946729078075E+07,
2460000.500000000, A.D. 2023-Feb-25 00:00:00.0000, 4.831637858939406E+05, -2.734145345558649E+08, -1.782767234296261E+07,
2460007.500000000, A.D. 2023-Mar-04 00:00:00.0000, 1.484188417858363E+07, -2.719726252509297E+08, -1.935380778947875E+07,
2460014.500000000, A.D. 2023-Mar-11 00:00:00.0000, 2.916514756510502E+07, -2.698824753946841E+08, -2.083380532862794E+07,
2460021.500000000, A.D. 2023-Mar-18 00:00:00.0000, 4.341820052900042E+07, -2.671433003770295E+08, -2.226369301518989E+07,
2460028.500000000, A.D. 2023-Mar-25 00:00:00.0000, 5.756597983941913E+07, -2.637567877701727E+08, -2.363962468212065E+07,
2460035.500000000, A.D. 2023-Apr-01 00:00:00.0000, 7.157334151914096E+07, -2.597271481107069E+08, -2.495790907270758E+07,
2460042.500000000, A.D. 2023-Apr-08 00:00:00.0000, 8.540529807173760E+07, -2.550611367934527E+08, -2.621503798947823E+07,
2460049.500000000, A.D. 2023-Apr-15 00:00:00.0000, 9.902725754158711E+07, -2.497680468115089E+08, -2.740771279663147E+07,
2460056.500000000, A.D. 2023-Apr-22 00:00:00.0000, 1.124052619765998E+08, -2.438596747213170E+08, -2.853286916919391E+07,
2460063.500000000, A.D. 2023-Apr-29 00:00:00.0000, 1.255062236811101E+08, -2.373502576632350E+08, -2.958769967041613E+07,
2460070.500000000, A.D. 2023-May-06 00:00:00.0000, 1.382981531899267E+08, -2.302563805107302E+08, -3.056967341978315E+07,
2460077.500000000, A.D. 2023-May-13 00:00:00.0000, 1.507503738691199E+08, -2.225968556412827E+08, -3.147655247462030E+07,
2460084.500000000, A.D. 2023-May-20 00:00:00.0000, 1.628337195987486E+08, -2.143925781119528E+08, -3.230640470975246E+07,
2460091.500000000, A.D. 2023-May-27 00:00:00.0000, 1.745207124210481E+08, -2.056663591704293E+08, -3.305761303080739E+07,
2460098.500000000, A.D. 2023-Jun-03 00:00:00.0000, 1.857857174761021E+08, -1.964427414759078E+08, -3.372888083709120E+07,
2460105.500000000, A.D. 2023-Jun-10 00:00:00.0000, 1.966050731627848E+08, -1.867477998097503E+08, -3.431923374726623E+07,
2460112.500000000, A.D. 2023-Jun-17 00:00:00.0000, 2.069571952249345E+08, -1.766089313204226E+08, -3.482801770350114E+07,
2460119.500000000, A.D. 2023-Jun-24 00:00:00.0000, 2.168226544141055E+08, -1.660546393077256E+08, -3.525489366740508E+07,
2460126.500000000, A.D. 2023-Jul-01 00:00:00.0000, 2.261842280166249E+08, -1.551143137288873E+08, -3.559982912798919E+07,
2460133.500000000, A.D. 2023-Jul-08 00:00:00.0000, 2.350269242467647E+08, -1.438180114345122E+08, -3.586308652666551E+07,
2460140.500000000, A.D. 2023-Jul-15 00:00:00.0000, 2.433379794701678E+08, -1.321962424874102E+08, -3.604520908299110E+07,
$$EOE